[{"OBJECT_NAME":"OBJECT V","OBJECT_ID":"2023-085V","EPOCH":"2026-03-09T21:44:00.165408","MEAN_MOTION":15.30745852,"ECCENTRICITY":0.00069081,"INCLINATION":97.4843,"RA_OF_ASC_NODE":179.3833,"ARG_OF_PERICENTER":71.0503,"MEAN_ANOMALY":289.1485,"EPHEMERIS_TYPE":0,"CLASSIFICATION_TYPE":"U","NORAD_CAT_ID":57023,"ELEMENT_SET_NO":999,"REV_AT_EPOCH":15149,"BSTAR":0.00067780507,"MEAN_MOTION_DOT":0.00020109,"MEAN_MOTION_DDOT":0},{"OBJECT_NAME":"STARLINK-34771","OBJECT_ID":"2025-167A","EPOCH":"2026-03-09T03:37:42.149856","MEAN_MOTION":15.30197852,"ECCENTRICITY":0.00010794,"INCLINATION":53.1615,"RA_OF_ASC_NODE":26.6352,"ARG_OF_PERICENTER":70.3215,"MEAN_ANOMALY":289.7903,"EPHEMERIS_TYPE":0,"CLASSIFICATION_TYPE":"U","NORAD_CAT_ID":65078,"ELEMENT_SET_NO":999,"REV_AT_EPOCH":3343,"BSTAR":0.0011303519,"MEAN_MOTION_DOT":0.00033266,"MEAN_MOTION_DDOT":0}]
